     2.11           H: GEO NAV MSG DATA                     RINEX VERSION / TYPE
RTKCONV 2.4.2       Liu.TY              20180927 203735 UTC PGM / RUN BY / DATE 
log: C:\Users\«Ó®ð¬h¤¸\Desktop\PVT  Project\DataFile\COM5_  COMMENT             
format: u-blox                                              COMMENT             
Antenna in CA548                                            COMMENT             
                                                            END OF HEADER       
27 18  9 27 20  0  0.0  .000000000000E+00  .000000000000E+00  .417657000000E+06
     .241092612800E+05  .197000000000E-02  .162500000000E-06  .100000000000E+01
     .346025978400E+05  .600625000000E-03 -.162500000000E-06  .327670000000E+05
    -.349236000000E+02 -.173200000000E-02  .187500000000E-06  .000000000000E+00
27 18  9 27 20  4 16.0  .000000000000E+00  .000000000000E+00  .417835000000E+06
     .241097711200E+05  .201250000000E-02  .162500000000E-06  .100000000000E+01
     .346027462400E+05  .558750000000E-03 -.162500000000E-06  .327670000000E+05
    -.353604000000E+02 -.168400000000E-02  .187500000000E-06  .000000000000E+00
27 18  9 27 20  8 32.0  .000000000000E+00  .000000000000E+00  .418088000000E+06
     .241102916000E+05  .205437500000E-02  .162500000000E-06  .100000000000E+01
     .346028838400E+05  .516250000000E-03 -.162500000000E-06  .327670000000E+05
    -.357852000000E+02 -.163600000000E-02  .187500000000E-06  .000000000000E+00
27 18  9 27 20 12 48.0  .000000000000E+00  .000000000000E+00  .418430000000E+06
     .241108228000E+05  .209562500000E-02  .162500000000E-06  .100000000000E+01
     .346030105600E+05  .473750000000E-03 -.162500000000E-06  .327670000000E+05
    -.361972000000E+02 -.158400000000E-02  .187500000000E-06  .000000000000E+00
27 18  9 27 20 17  4.0  .000000000000E+00  .000000000000E+00  .418603000000E+06
     .241113644000E+05  .213625000000E-02  .162500000000E-06  .100000000000E+01
     .346031264000E+05  .431250000000E-03 -.162500000000E-06  .327670000000E+05
    -.365968000000E+02 -.153600000000E-02  .187500000000E-06  .000000000000E+00
27 18  9 27 20 21 20.0  .000000000000E+00  .000000000000E+00  .418856000000E+06
     .241119163200E+05  .217625000000E-02  .150000000000E-06  .100000000000E+01
     .346032313600E+05  .388750000000E-03 -.162500000000E-06  .327670000000E+05
    -.369832000000E+02 -.148400000000E-02  .187500000000E-06  .000000000000E+00
27 18  9 27 20 25 36.0  .000000000000E+00  .000000000000E+00  .419283000000E+06
     .241124784800E+05  .221562500000E-02  .150000000000E-06  .100000000000E+01
     .346033253600E+05  .345625000000E-03 -.162500000000E-06  .327670000000E+05
    -.373568000000E+02 -.143200000000E-02  .187500000000E-06  .000000000000E+00
27 18  9 27 20 29 52.0  .000000000000E+00  .000000000000E+00  .419371000000E+06
     .241130505600E+05  .225437500000E-02  .150000000000E-06  .100000000000E+01
     .346034084000E+05  .303125000000E-03 -.162500000000E-06  .327670000000E+05
    -.377168000000E+02 -.138000000000E-02  .187500000000E-06  .000000000000E+00
27 18  9 27 20 34  8.0  .000000000000E+00  .000000000000E+00  .419624000000E+06
     .241136325600E+05  .229250000000E-02  .150000000000E-06  .100000000000E+01
     .346034804800E+05  .260000000000E-03 -.162500000000E-06  .327670000000E+05
    -.380640000000E+02 -.132800000000E-02  .187500000000E-06  .000000000000E+00
